ONEWEB-0387             
1 49313U 21090AL  24130.35947518  .00000046  00000+0  82167-4 0  9991
2 49313  87.9212  67.4772 0002081  70.0644 290.0713 13.20771003129644
ONEWEB-0388             
1 49314U 21090AM  24129.94321230  .00000099  00000+0  21519-3 0  9993
2 49314  87.9124  98.0673 0001881  85.1542 274.9806 13.19724336124956
ONEWEB-0389             
1 50469U 21132A   24130.49698372 -.00000027  00000+0 -10181-3 0  9995
2 50469  87.9179 158.8568 0002118  80.1239 280.0132 13.17647399118144
ONEWEB-0390             
1 50470U 21132B   24130.49856506  .00000021  00000+0  20849-4 0  9997
2 50470  87.9181 158.8642 0002427  89.0777 271.0633 13.17648465118141
ONEWEB-0391             
1 50471U 21132C   24129.81672084  .00000045  00000+0  82947-4 0  9992
2 50471  87.9190 158.9792 0001992  80.5696 279.5661 13.17647819116763
ONEWEB-0392             
1 50472U 21132D   24130.53021366  .00000044  00000+0  80551-4 0  9993
2 50472  87.9172 158.8441 0002094  83.2105 276.9265 13.17649203118181
ONEWEB-0393             
1 50473U 21132E   24130.50345541 -.00000021  00000+0 -87160-4 0  9995
2 50473  87.9183 158.8214 0002101  84.2528 275.8843 13.17648498118175
ONEWEB-0394             
1 50474U 21132F   24129.93777154  .00000121  00000+0  27510-3 0  9991
2 50474  87.9116 128.5890 0001986  86.0277 274.1082 13.18685365120217
